NORAD_CAT_ID,OBJECT_NAME,OBJECT_TYPE,EPOCH,MEAN_MOTION,ECCENTRICITY,INCLINATION,RA_OF_ASC_NODE,ARG_OF_PERICENTER,MEAN_ANOMALY,BSTAR,MEAN_MOTION_DOT,MEAN_MOTION_DDOT,TLE_LINE0,TLE_LINE1,TLE_LINE2,SEMIMAJOR_AXIS,PERIOD,APOGEE,PERIGEE,DECAYED
55287.0,STARLINK-5341,PAYLOAD,2023-12-15 19:22:29,14.98321946,0.0002396,69.9994,259.2592,253.237,106.8526,4.188e-05,4.07e-06,0.0,0 STARLINK-5341,1 55287U 23010U   23349.80728593  .00000407  00000-0  41880-4 0  9992,2 55287  69.9994 259.2592 0002396 253.2370 106.8526 14.98321946 51383,6950.218,96.108,573.748,570.418,0.0
55287.0,STARLINK-5341,PAYLOAD,2023-12-15 22:34:46,14.98317092,0.0002641,69.9981,258.9207,263.4646,96.6213,-3.4253e-05,-5.01e-06,0.0,0 STARLINK-5341,1 55287U 23010U   23349.94081141 -.00000501  00000-0 -34253-4 0  9991,2 55287  69.9981 258.9207 0002641 263.4646  96.6213 14.98317092 51713,6950.233,96.108,573.933,570.262,0.0
55287.0,STARLINK-5341,PAYLOAD,2023-12-16 03:23:10,14.98316711,0.0002543,69.9994,258.4183,255.7387,104.349,-2.8042e-05,-4.27e-06,0.0,0 STARLINK-5341,1 55287U 23010U   23350.14109314 -.00000427  00000-0 -28042-4 0  9994,2 55287  69.9994 258.4183 0002543 255.7387 104.3490 14.98316711 51432,6950.234,96.108,573.866,570.332,0.0
55287.0,STARLINK-5341,PAYLOAD,2023-12-16 19:24:31,14.98329321,0.0002373,69.9997,256.7349,246.1668,113.9242,-0.00017128,-2.136e-05,0.0,0 STARLINK-5341,1 55287U 23010U   23350.80869325 -.00002136  00000-0 -17128-3 0  9993,2 55287  69.9997 256.7349 0002373 246.1668 113.9242 14.98329321 51530,6950.195,96.107,573.709,570.411,0.0
55287.0,STARLINK-5341,PAYLOAD,2023-12-16 22:36:46,14.98335796,0.0002313,70.0001,256.3992,237.1459,122.9477,-8.1881e-05,-1.07e-05,0.0,0 STARLINK-5341,1 55287U 23010U   23350.94220581 -.00001070  00000-0 -81881-4 0  9997,2 55287  70.0001 256.3992 0002313 237.1459 122.9477 14.98335796 51860,6950.175,96.107,573.648,570.432,0.0
55287.0,STARLINK-5341,PAYLOAD,2023-12-17 03:25:11,14.98332456,0.0002211,69.9996,255.8938,260.0372,100.0538,-0.00012128,-1.54e-05,0.0,0 STARLINK-5341,1 55287U 23010U   23351.14249088 -.00001540  00000-0 -12128-3 0  9992,2 55287  69.9996 255.8938 0002211 260.0372 100.0538 14.98332456 51898,6950.185,96.107,573.587,570.514,0.0
55287.0,STARLINK-5341,PAYLOAD,2023-12-17 19:26:31,14.98324335,0.0002449,69.9995,254.2079,260.8264,99.2618,0.00023259,2.683e-05,0.0,0 STARLINK-5341,1 55287U 23010U   23351.81008599  .00002683  00000-0  23259-3 0  9990,2 55287  69.9995 254.2079 0002449 260.8264  99.2618 14.98324335 51689,6950.21,96.107,573.778,570.373,0.0
55287.0,STARLINK-5341,PAYLOAD,2023-12-17 22:38:47,14.98330236,0.0002214,70.0001,253.8737,237.7428,122.3517,0.00028378,3.295e-05,0.0,0 STARLINK-5341,1 55287U 23010U   23351.94360134  .00003295  00000-0  28378-3 0  9997,2 55287  70.0001 253.8737 0002214 237.7428 122.3517 14.98330236 52012,6950.192,96.107,573.596,570.518,0.0
55287.0,STARLINK-5341,PAYLOAD,2023-12-18 03:27:11,14.98335012,0.0002275,70.0005,253.371,229.3619,130.7342,0.00028275,3.283e-05,0.0,0 STARLINK-5341,1 55287U 23010U   23352.14387814  .00003283  00000-0  28275-3 0  9997,2 55287  70.0005 253.3710 0002275 229.3619 130.7342 14.98335012 51732,6950.177,96.107,573.624,570.461,0.0
55287.0,STARLINK-5341,PAYLOAD,2023-12-18 19:28:32,14.98327641,0.0002377,70.0029,251.694,213.7134,146.3874,8.332e-08,-9.2e-07,0.0,0 STARLINK-5341,1 55287U 23010U   23352.81149148 -.00000092  00000-0  83320-7 0  9999,2 55287  70.0029 251.6940 0002377 213.7134 146.3874 14.98327641 51839,6950.2,96.107,573.717,570.413,0.0
55287.0,STARLINK-5341,PAYLOAD,2023-12-18 21:04:41,14.98324347,0.0002617,69.9987,251.5173,263.7271,96.359,-7.094e-06,-1.78e-06,0.0,0 STARLINK-5341,1 55287U 23010U   23352.87825385 -.00000178  00000-0 -70940-5 0  9997,2 55287  69.9987 251.5173 0002617 263.7271  96.3590 14.98324347 52155,6950.21,96.107,573.894,570.257,0.0
55287.0,STARLINK-5341,PAYLOAD,2023-12-19 03:29:13,14.98319797,0.0002204,70.0,250.8452,243.863,116.2302,-1.2305e-05,-2.4e-06,0.0,0 STARLINK-5341,1 55287U 23010U   23353.14529808 -.00000240  00000-0 -12305-4 0  9999,2 55287  70.0000 250.8452 0002204 243.8630 116.2302 14.98319797 51881,6950.224,96.108,573.621,570.558,0.0
55287.0,STARLINK-5341,PAYLOAD,2023-12-19 19:30:33,14.98358074,0.0001968,69.9993,249.1589,254.1134,105.9808,-0.00046485,-5.639e-05,0.0,0 STARLINK-5341,1 55287U 23010U   23353.81288744 -.00005639  00000-0 -46485-3 0  9996,2 55287  69.9993 249.1589 0001968 254.1134 105.9808 14.98358074 51989,6950.106,96.105,573.339,570.603,0.0
55287.0,STARLINK-5341,PAYLOAD,2023-12-20 03:31:12,14.98365845,0.0002056,69.9988,248.319,231.6383,128.4592,-0.0004173,-5.073e-05,0.0,0 STARLINK-5341,1 55287U 23010U   23354.14667427 -.00005073  00000-0 -41730-3 0  9992,2 55287  69.9988 248.3190 0002056 231.6383 128.4592 14.98365845 52038,6950.082,96.105,573.376,570.518,0.0
55287.0,STARLINK-5341,PAYLOAD,2023-12-20 19:32:34,14.98328043,0.0002107,69.9997,246.6351,248.9964,111.097,0.00020395,2.341e-05,0.0,0 STARLINK-5341,1 55287U 23010U   23354.81428425  .00002341  00000-0  20395-3 0  9996,2 55287  69.9997 246.6351 0002107 248.9964 111.0970 14.98328043 52139,6950.199,96.107,573.528,570.6,0.0
55287.0,STARLINK-5341,PAYLOAD,2023-12-20 21:08:42,14.98329215,0.0002257,69.9994,246.4669,255.1216,104.9693,0.00019035,2.179e-05,0.0,0 STARLINK-5341,1 55287U 23010U   23354.88104454  .00002179  00000-0  19035-3 0  9994,2 55287  69.9994 246.4669 0002257 255.1216 104.9693 14.98329215 52452,6950.195,96.107,573.629,570.492,0.0
55287.0,STARLINK-5341,PAYLOAD,2023-12-21 01:57:06,14.98331607,0.0002256,69.9997,245.9623,261.2371,98.8533,0.00021329,2.453e-05,0.0,0 STARLINK-5341,1 55287U 23010U   23355.08132281  .00002453  00000-0  21329-3 0  9990,2 55287  69.9997 245.9623 0002256 261.2371  98.8533 14.98331607 52483,6950.188,96.107,573.621,570.485,0.0
55287.0,STARLINK-5341,PAYLOAD,2023-12-21 22:46:51,14.98329054,0.0002163,70.0005,243.7753,223.6789,136.42,1.6793e-05,1.07e-06,0.0,0 STARLINK-5341,1 55287U 23010U   23355.94920779  .00000107  00000-0  16793-4 0  9996,2 55287  70.0005 243.7753 0002163 223.6789 136.4200 14.98329054 52616,6950.196,96.107,573.564,570.557,0.0
55287.0,STARLINK-5341,PAYLOAD,2023-12-22 01:59:06,14.98342218,0.0002516,69.9999,243.4401,233.706,126.3867,8.4972e-05,9.21e-06,0.0,0 STARLINK-5341,1 55287U 23010U   23356.08271683  .00000921  00000-0  84972-4 0  9993,2 55287  69.9999 243.4401 0002516 233.7060 126.3867 14.98342218 52320,6950.155,96.106,573.769,570.271,0.0
55287.0,STARLINK-5341,PAYLOAD,2023-12-22 19:36:33,14.98361918,0.0002477,70.0014,241.588,210.7692,149.3322,0.00035097,4.101e-05,0.0,0 STARLINK-5341,1 55287U 23010U   23356.81705287  .00004101  00000-0  35097-3 0  9993,2 55287  70.0014 241.5880 0002477 210.7692 149.3322 14.98361918 52434,6950.094,96.105,573.681,570.238,0.0
55287.0,STARLINK-5341,PAYLOAD,2023-12-22 21:12:41,14.98360882,0.0002414,70.0015,241.4198,213.4237,146.677,0.00033775,3.942e-05,0.0,0 STARLINK-5341,1 55287U 23010U   23356.88381253  .00003942  00000-0  33775-3 0  9996,2 55287  70.0015 241.4198 0002414 213.4237 146.6770 14.98360882 52753,6950.097,96.105,573.64,570.285,0.0
55287.0,STARLINK-5341,PAYLOAD,2023-12-23 02:01:05,14.98360934,0.0002226,70.0008,240.9135,227.1873,132.9099,0.00031458,3.665e-05,0.0,0 STARLINK-5341,1 55287U 23010U   23357.08408986  .00003665  00000-0  31458-3 0  9990,2 55287  70.0008 240.9135 0002226 227.1873 132.9099 14.98360934 52782,6950.097,96.105,573.509,570.415,0.0
55287.0,STARLINK-5341,PAYLOAD,2023-12-23 19:38:36,14.98325015,0.00028,69.9994,239.063,241.0216,119.0663,-0.00015472,-1.938e-05,0.0,0 STARLINK-5341,1 55287U 23010U   23357.81848173 -.00001938  00000-0 -15472-3 0  9998,2 55287  69.9994 239.0630 0002800 241.0216 119.0663 14.98325015 52588,6950.208,96.107,574.019,570.127,0.0
55287.0,STARLINK-5341,PAYLOAD,2023-12-23 21:14:44,14.98323946,0.0002842,70.0012,238.8973,215.6231,144.4738,-9.9898e-05,-1.284e-05,0.0,0 STARLINK-5341,1 55287U 23010U   23357.88524274 -.00001284  00000-0 -99898-4 0  9997,2 55287  70.0012 238.8973 0002842 215.6231 144.4738 14.98323946 52901,6950.212,96.107,574.052,570.101,0.0
55287.0,STARLINK-5341,PAYLOAD,2023-12-24 02:03:09,14.98321028,0.0002817,69.998,238.3862,254.256,105.8289,-0.00018383,-2.285e-05,0.0,0 STARLINK-5341,1 55287U 23010U   23358.08552632 -.00002285  00000-0 -18383-3 0  9990,2 55287  69.9980 238.3862 0002817 254.2560 105.8289 14.98321028 52934,6950.221,96.108,574.044,570.128,0.0
55287.0,STARLINK-5341,PAYLOAD,2023-12-24 19:40:37,14.98339271,0.0003142,69.9977,236.533,263.462,96.6181,-0.00035623,-4.342e-05,0.0,0 STARLINK-5341,1 55287U 23010U   23358.81988223 -.00004342  00000-0 -35623-3 0  9992,2 55287  69.9977 236.5330 0003142 263.4620  96.6181 14.98339271 52736,6950.164,96.106,574.213,569.845,0.0
55287.0,STARLINK-5341,PAYLOAD,2023-12-25 02:05:09,14.98344935,0.0002911,69.9983,235.8603,257.766,102.3173,-0.00022839,-2.818e-05,0.0,0 STARLINK-5341,1 55287U 23010U   23359.08691393 -.00002818  00000-0 -22839-3 0  9992,2 55287  69.9983 235.8603 0002911 257.7660 102.3173 14.98344935 52774,6950.147,96.106,574.035,569.989,0.0
55287.0,STARLINK-5341,PAYLOAD,2023-12-25 19:42:38,14.98318367,0.0002827,69.9984,234.0089,251.1959,108.8893,0.00023541,2.716e-05,0.0,0 STARLINK-5341,1 55287U 23010U   23359.82128277  .00002716  00000-0  23541-3 0  9996,2 55287  69.9984 234.0089 0002827 251.1959 108.8893 14.98318367 52881,6950.229,96.108,574.059,570.129,0.0
55287.0,STARLINK-5341,PAYLOAD,2023-12-26 14:56:15,14.98329186,0.0002656,69.9988,231.9899,251.5988,108.4883,0.00013276,1.491e-05,0.0,0 STARLINK-5341,1 55287U 23010U   23360.62240476  .00001491  00000-0  13276-3 0  9995,2 55287  69.9988 231.9899 0002656 251.5988 108.4883 14.98329186 53311,6950.195,96.107,573.906,570.214,0.0
55287.0,STARLINK-5341,PAYLOAD,2023-12-26 19:44:40,14.9832941,0.0002591,69.999,231.4843,255.3539,104.7332,0.00013301,1.494e-05,0.0,0 STARLINK-5341,1 55287U 23010U   23360.82268526  .00001494  00000-0  13301-3 0  9995,2 55287  69.9990 231.4843 0002591 255.3539 104.7332 14.98329410 53037,6950.195,96.107,573.861,570.259,0.0
